[{"OBJECT_NAME":"SHENZHOU-22","OBJECT_ID":"2025-272A","EPOCH":"2026-03-14T00:03:53.258400","MEAN_MOTION":15.6090469,"ECCENTRICITY":0.0006689,"INCLINATION":41.4663,"RA_OF_ASC_NODE":181.9138,"ARG_OF_PERICENTER":299.3968,"MEAN_ANOMALY":60.6202,"EPHEMERIS_TYPE":0,"CLASSIFICATION_TYPE":"U","NORAD_CAT_ID":66645,"ELEMENT_SET_NO":999,"REV_AT_EPOCH":26752,"BSTAR":0.00034787289,"MEAN_MOTION_DOT":0.00029757,"MEAN_MOTION_DDOT":0},{"OBJECT_NAME":"SOYUZ-MS 28","OBJECT_ID":"2025-275A","EPOCH":"2026-03-14T19:19:28.771104","MEAN_MOTION":15.48281436,"ECCENTRICITY":0.00063712,"INCLINATION":51.6329,"RA_OF_ASC_NODE":47.0659,"ARG_OF_PERICENTER":190.9724,"MEAN_ANOMALY":169.1126,"EPHEMERIS_TYPE":0,"CLASSIFICATION_TYPE":"U","NORAD_CAT_ID":66664,"ELEMENT_SET_NO":999,"REV_AT_EPOCH":55452,"BSTAR":0.00020105253,"MEAN_MOTION_DOT":0.00010373,"MEAN_MOTION_DDOT":0},{"OBJECT_NAME":"DUPLEX","OBJECT_ID":"1998-067XS","EPOCH":"2026-03-14T21:58:11.436960","MEAN_MOTION":15.56591153,"ECCENTRICITY":0.0002739,"INCLINATION":51.629,"RA_OF_ASC_NODE":43.3045,"ARG_OF_PERICENTER":136.2509,"MEAN_ANOMALY":223.87,"EPHEMERIS_TYPE":0,"CLASSIFICATION_TYPE":"U","NORAD_CAT_ID":66906,"ELEMENT_SET_NO":999,"REV_AT_EPOCH":1594,"BSTAR":0.00050353932,"MEAN_MOTION_DOT":0.00036173,"MEAN_MOTION_DDOT":0},{"OBJECT_NAME":"ISS OBJECT XT","OBJECT_ID":"1998-067XT","EPOCH":"2026-03-14T22:17:50.973216","MEAN_MOTION":15.71125912,"ECCENTRICITY":0.00046929,"INCLINATION":51.6247,"RA_OF_ASC_NODE":38.8754,"ARG_OF_PERICENTER":114.9023,"MEAN_ANOMALY":245.2462,"EPHEMERIS_TYPE":0,"CLASSIFICATION_TYPE":"U","NORAD_CAT_ID":66907,"ELEMENT_SET_NO":999,"REV_AT_EPOCH":1600,"BSTAR":0.0015762343,"MEAN_MOTION_DOT":0.00207522,"MEAN_MOTION_DDOT":0},{"OBJECT_NAME":"ISS OBJECT XU","OBJECT_ID":"1998-067XU","EPOCH":"2026-03-14T22:14:37.346496","MEAN_MOTION":15.71267428,"ECCENTRICITY":0.00049604,"INCLINATION":51.6241,"RA_OF_ASC_NODE":38.857,"ARG_OF_PERICENTER":116.2643,"MEAN_ANOMALY":243.8865,"EPHEMERIS_TYPE":0,"CLASSIFICATION_TYPE":"U","NORAD_CAT_ID":66908,"ELEMENT_SET_NO":999,"REV_AT_EPOCH":1600,"BSTAR":0.0015925423,"MEAN_MOTION_DOT":0.00211029,"MEAN_MOTION_DDOT":0},{"OBJECT_NAME":"SILVERSAT","OBJECT_ID":"1998-067XV","EPOCH":"2026-03-14T22:01:26.980896","MEAN_MOTION":15.74646636,"ECCENTRICITY":0.00054887,"INCLINATION":51.6238,"RA_OF_ASC_NODE":38.0433,"ARG_OF_PERICENTER":116.177,"MEAN_ANOMALY":243.9794,"EPHEMERIS_TYPE":0,"CLASSIFICATION_TYPE":"U","NORAD_CAT_ID":66909,"ELEMENT_SET_NO":999,"REV_AT_EPOCH":1601,"BSTAR":0.0017572386,"MEAN_MOTION_DOT":0.00271074,"MEAN_MOTION_DDOT":0},{"OBJECT_NAME":"ISS OBJECT XW","OBJECT_ID":"1998-067XW","EPOCH":"2026-03-14T22:14:01.481856","MEAN_MOTION":15.7028895,"ECCENTRICITY":0.00053262,"INCLINATION":51.6237,"RA_OF_ASC_NODE":38.8515,"ARG_OF_PERICENTER":118.2073,"MEAN_ANOMALY":241.9463,"EPHEMERIS_TYPE":0,"CLASSIFICATION_TYPE":"U","NORAD_CAT_ID":66910,"ELEMENT_SET_NO":999,"REV_AT_EPOCH":1600,"BSTAR":0.00143229,"MEAN_MOTION_DOT":0.00181475,"MEAN_MOTION_DDOT":0},{"OBJECT_NAME":"ISS OBJECT XX","OBJECT_ID":"1998-067XX","EPOCH":"2026-03-14T21:40:35.579712","MEAN_MOTION":15.78504066,"ECCENTRICITY":0.00068255,"INCLINATION":51.6205,"RA_OF_ASC_NODE":37.1744,"ARG_OF_PERICENTER":118.8306,"MEAN_ANOMALY":241.3381,"EPHEMERIS_TYPE":0,"CLASSIFICATION_TYPE":"U","NORAD_CAT_ID":66911,"ELEMENT_SET_NO":999,"REV_AT_EPOCH":1601,"BSTAR":0.0019859153,"MEAN_MOTION_DOT":0.00367666,"MEAN_MOTION_DDOT":0},{"OBJECT_NAME":"ISS OBJECT XY","OBJECT_ID":"1998-067XY","EPOCH":"2026-03-14T22:45:17.273376","MEAN_MOTION":15.6480189,"ECCENTRICITY":0.00034365,"INCLINATION":51.6268,"RA_OF_ASC_NODE":40.5165,"ARG_OF_PERICENTER":120.1038,"MEAN_ANOMALY":240.0298,"EPHEMERIS_TYPE":0,"CLASSIFICATION_TYPE":"U","NORAD_CAT_ID":66912,"ELEMENT_SET_NO":999,"REV_AT_EPOCH":1597,"BSTAR":0.0011443978,"MEAN_MOTION_DOT":0.00114837,"MEAN_MOTION_DDOT":0},{"OBJECT_NAME":"KNACKSAT-2","OBJECT_ID":"1998-067XZ","EPOCH":"2026-03-14T22:37:57.939744","MEAN_MOTION":15.52300937,"ECCENTRICITY":0.00094603,"INCLINATION":51.6311,"RA_OF_ASC_NODE":45.7376,"ARG_OF_PERICENTER":204.5444,"MEAN_ANOMALY":155.5097,"EPHEMERIS_TYPE":0,"CLASSIFICATION_TYPE":"U","NORAD_CAT_ID":67683,"ELEMENT_SET_NO":999,"REV_AT_EPOCH":560,"BSTAR":0.00081032224,"MEAN_MOTION_DOT":0.00050134,"MEAN_MOTION_DDOT":0},{"OBJECT_NAME":"GXIBA-1","OBJECT_ID":"1998-067YA","EPOCH":"2026-03-14T04:47:37.477248","MEAN_MOTION":15.5511411,"ECCENTRICITY":0.00116291,"INCLINATION":51.6308,"RA_OF_ASC_NODE":49.0237,"ARG_OF_PERICENTER":191.1014,"MEAN_ANOMALY":168.9722,"EPHEMERIS_TYPE":0,"CLASSIFICATION_TYPE":"U","NORAD_CAT_ID":67684,"ELEMENT_SET_NO":999,"REV_AT_EPOCH":549,"BSTAR":0.0014476585,"MEAN_MOTION_DOT":0.00100394,"MEAN_MOTION_DDOT":0},{"OBJECT_NAME":"CORAL","OBJECT_ID":"1998-067YB","EPOCH":"2026-03-14T22:29:40.938432","MEAN_MOTION":15.52714905,"ECCENTRICITY":0.00115172,"INCLINATION":51.631,"RA_OF_ASC_NODE":45.6991,"ARG_OF_PERICENTER":200.8992,"MEAN_ANOMALY":159.1529,"EPHEMERIS_TYPE":0,"CLASSIFICATION_TYPE":"U","NORAD_CAT_ID":67685,"ELEMENT_SET_NO":999,"REV_AT_EPOCH":560,"BSTAR":0.00087389849,"MEAN_MOTION_DOT":0.00055005,"MEAN_MOTION_DDOT":0},{"OBJECT_NAME":"ISS OBJECT YC","OBJECT_ID":"1998-067YC","EPOCH":"2026-03-14T22:18:50.851008","MEAN_MOTION":15.53369363,"ECCENTRICITY":0.00082719,"INCLINATION":51.6315,"RA_OF_ASC_NODE":45.6515,"ARG_OF_PERICENTER":169.8517,"MEAN_ANOMALY":190.2642,"EPHEMERIS_TYPE":0,"CLASSIFICATION_TYPE":"U","NORAD_CAT_ID":67686,"ELEMENT_SET_NO":999,"REV_AT_EPOCH":560,"BSTAR":0.0010276165,"MEAN_MOTION_DOT":0.00066333,"MEAN_MOTION_DDOT":0},{"OBJECT_NAME":"LEOPARD","OBJECT_ID":"1998-067YD","EPOCH":"2026-03-14T22:33:40.682880","MEAN_MOTION":15.52499529,"ECCENTRICITY":0.00081433,"INCLINATION":51.6312,"RA_OF_ASC_NODE":45.7201,"ARG_OF_PERICENTER":173.3259,"MEAN_ANOMALY":186.784,"EPHEMERIS_TYPE":0,"CLASSIFICATION_TYPE":"U","NORAD_CAT_ID":67687,"ELEMENT_SET_NO":999,"REV_AT_EPOCH":552,"BSTAR":0.00082288465,"MEAN_MOTION_DOT":0.0005127,"MEAN_MOTION_DDOT":0},{"OBJECT_NAME":"ISS OBJECT YE","OBJECT_ID":"1998-067YE","EPOCH":"2026-03-14T22:23:46.787424","MEAN_MOTION":15.5306816,"ECCENTRICITY":0.00081064,"INCLINATION":51.6312,"RA_OF_ASC_NODE":45.6744,"ARG_OF_PERICENTER":170.5287,"MEAN_ANOMALY":189.5858,"EPHEMERIS_TYPE":0,"CLASSIFICATION_TYPE":"U","NORAD_CAT_ID":67688,"ELEMENT_SET_NO":999,"REV_AT_EPOCH":552,"BSTAR":0.00095461091,"MEAN_MOTION_DOT":0.00060869,"MEAN_MOTION_DDOT":0},{"OBJECT_NAME":"CREW DRAGON 12","OBJECT_ID":"2026-031A","EPOCH":"2026-03-14T19:19:28.771104","MEAN_MOTION":15.48281436,"ECCENTRICITY":0.00063712,"INCLINATION":51.6329,"RA_OF_ASC_NODE":47.0659,"ARG_OF_PERICENTER":190.9724,"MEAN_ANOMALY":169.1126,"EPHEMERIS_TYPE":0,"CLASSIFICATION_TYPE":"U","NORAD_CAT_ID":67796,"ELEMENT_SET_NO":999,"REV_AT_EPOCH":55702,"BSTAR":0.00020105253,"MEAN_MOTION_DOT":0.00010373,"MEAN_MOTION_DDOT":0}]
